OBJECT_NAME,OBJECT_ID,EPOCH,MEAN_MOTION,ECCENTRICITY,INCLINATION,RA_OF_ASC_NODE,ARG_OF_PERICENTER,MEAN_ANOMALY,EPHEMERIS_TYPE,CLASSIFICATION_TYPE,NORAD_CAT_ID,ELEMENT_SET_NO,REV_AT_EPOCH,BSTAR,MEAN_MOTION_DOT,MEAN_MOTION_DDOT
ELEKTRO-L 3,2019-095A,2026-06-11T18:34:24.686112,1.00271957,.0001212,0.2416,81.4397,355.4947,177.7384,0,U,44903,999,2365,0,-.8E-6,0
GONETS-M 14,2019-096A,2026-06-11T17:38:49.946784,12.42869912,.001328,82.5229,88.0199,159.6728,200.4883,0,U,44905,999,29300,.12267E-3,.27E-6,0
GONETS-M 15,2019-096B,2026-06-11T16:25:15.528000,12.42871535,.0014647,82.5248,88.5121,183.6832,176.4143,0,U,44906,999,29296,.24788E-3,.44E-6,0
GONETS-M 16,2019-096C,2026-06-11T17:03:08.635968,12.42891739,.0009691,82.5195,87.4508,227.7698,132.2560,0,U,44907,999,29295,-.51449E-4,.3E-7,0
RS-44 & BREEZE-KM R/B,2019-096E,2026-06-11T14:39:21.722112,12.79748751,.0217927,82.5217,343.4113,157.1662,203.9312,0,U,44909,999,30163,.60927E-4,.28E-6,0
JILIN-1 KUANFU 01,2020-003A,2026-06-11T15:43:54.411168,15.10694610,.0008676,97.5032,236.7186,329.8301,30.2429,0,U,45016,999,35449,.14155E-3,.2282E-4,0
XINGYUN-2 01,2020-028A,2026-06-11T17:08:59.069184,15.11784273,.0007918,97.4867,155.2232,214.3111,145.7609,0,U,45602,999,33401,.10128E-3,.1665E-4,0
XINGYUN-2 02,2020-028B,2026-06-11T16:36:48.181248,15.11516368,.0009478,97.5071,168.7800,295.4879,64.5370,0,U,45603,999,33400,.14731E-3,.2433E-4,0
HAIYANG-1D,2020-036A,2026-06-11T17:46:27.635232,14.34171204,.0003119,98.4550,104.5381,140.8190,219.3221,0,U,45721,999,31419,.4299E-5,-.31E-6,0
M2 PATHFINDER,2020-037E,2026-06-11T11:03:27.891936,15.04652768,.0011967,97.8158,353.6285,164.5822,195.5770,0,U,45727,999,32463,.14173E-3,.1931E-4,0
GAOFEN DUOMO (GFDM),2020-042A,2026-06-11T17:16:08.673312,14.76872326,.0012478,97.7750,222.8046,90.2323,270.0317,0,U,45856,999,32020,.93211E-4,.606E-5,0
ZIYUAN 3-03 (ZY 3-03),2020-051A,2026-06-11T17:24:33.824736,15.21492053,.0003803,97.2838,230.6280,344.0802,16.0314,0,U,45939,999,32651,.27186E-3,.605E-4,0
NEMO-HD,2020-061F,2026-06-11T16:30:16.068672,15.44483980,.0002462,97.1928,224.6961,87.3051,272.8480,0,U,46277,999,32113,.21329E-3,.9797E-4,0
NAPA-1,2020-061BA,2026-06-11T17:41:10.209408,15.67262660,.0001222,97.2472,236.7399,164.5975,195.5324,0,U,46320,999,32088,.62138E-3,.66984E-3,0
JILIN-1 GAOFEN 3E,2020-065D,2026-06-11T15:40:34.899744,15.62968297,.0012543,97.2257,215.1365,174.3889,185.7513,0,U,46457,999,31889,.6174E-3,.56281E-3,0
JILIN-1 GAOFEN 3F,2020-065E,2026-06-11T16:02:52.485792,15.60340818,.0014139,97.2214,212.5136,163.5931,196.5787,0,U,46458,999,31884,.60568E-3,.49903E-3,0
JILIN-1 GAOFEN 3G,2020-065F,2026-06-11T16:03:26.334720,15.70223625,.0009542,97.2282,219.2277,82.8660,277.3688,0,U,46459,999,31907,.70133E-3,.85734E-3,0
JILIN-1 GAOFEN 3H,2020-065G,2026-06-11T16:37:31.320768,15.66986645,.0004394,97.2229,215.6126,20.9354,339.2086,0,U,46460,999,31902,.68372E-3,.72983E-3,0
HAIYANG-2C,2020-066A,2026-06-11T17:50:53.964096,13.83375012,.0009135,65.9970,228.8369,238.1870,121.8309,0,U,46469,999,28874,.91652E-4,.2E-6,0
HJ-2A,2020-067A,2026-06-11T16:13:23.629152,14.76510445,.0002452,97.8825,241.1791,296.9818,63.1141,0,U,46478,999,30744,.11604E-3,.759E-5,0
HJ-2B,2020-067B,2026-06-11T17:06:44.136576,14.76551591,.0001195,97.8888,242.2319,96.2678,263.8668,0,U,46479,999,30745,.11341E-3,.741E-5,0
GONETS-M 17,2020-068A,2026-06-11T17:39:13.381056,12.42872851,.0023272,82.4994,350.8953,48.8579,311.4504,0,U,46486,999,25848,.13714E-3,.29E-6,0
GONETS-M 18,2020-068B,2026-06-11T16:46:53.376960,12.42872905,.0020529,82.4948,350.0379,45.6771,314.5987,0,U,46487,999,25846,.11656E-3,.26E-6,0
GONETS-M 19,2020-068C,2026-06-11T18:07:31.091808,12.42891764,.0014398,82.4973,350.4524,60.6203,299.6313,0,U,46488,999,25857,.70488E-5,.11E-6,0
DEKART,2020-068H,2026-06-11T16:10:38.070336,15.37225801,.0007235,97.8741,171.5493,311.0425,49.0192,0,U,46493,999,31492,.29991E-3,.10855E-3,0
NORBI,2020-068J,2026-06-11T17:28:52.189248,15.48223582,.0004459,97.8626,178.2128,272.5832,87.4907,0,U,46494,999,31536,.40133E-3,.2107E-3,0
SALSAT,2020-068K,2026-06-11T14:03:12.574080,15.29719030,.0008526,97.8849,165.3093,331.4069,28.6701,0,U,46495,999,31450,.24314E-3,.6923E-4,0
ICEYE-X6,2020-068M,2026-06-11T17:42:15.895872,15.04488745,.0008477,98.0960,156.1484,105.8750,254.3410,0,U,46497,999,31241,.23914E-3,.3282E-4,0
