ELEKTRO-L 3             
1 44903U 19095A   26162.77389683 -.00000080  00000+0  00000+0 0  9999
2 44903   0.2416  81.4397 0001212 355.4947 177.7384  1.00271957 23655
GONETS-M 14             
1 44905U 19096A   26162.73530031  .00000027  00000+0  12267-3 0  9995
2 44905  82.5229  88.0199 0013280 159.6728 200.4883 12.42869912293002
GONETS-M 15             
1 44906U 19096B   26162.68420750  .00000044  00000+0  24788-3 0  9996
2 44906  82.5248  88.5121 0014647 183.6832 176.4143 12.42871535292964
GONETS-M 16             
1 44907U 19096C   26162.71051662  .00000003  00000+0 -51449-4 0  9994
2 44907  82.5195  87.4508 0009691 227.7698 132.2560 12.42891739292956
RS-44 & BREEZE-KM R/B   
1 44909U 19096E   26162.61066808  .00000028  00000+0  60927-4 0  9990
2 44909  82.5217 343.4113 0217927 157.1662 203.9312 12.79748751301632
JILIN-1 KUANFU 01       
1 45016U 20003A   26162.65549087  .00002282  00000+0  14155-3 0  9994
2 45016  97.5032 236.7186 0008676 329.8301  30.2429 15.10694610354498
XINGYUN-2 01            
1 45602U 20028A   26162.71457256  .00001665  00000+0  10128-3 0  9995
2 45602  97.4867 155.2232 0007918 214.3111 145.7609 15.11784273334010
XINGYUN-2 02            
1 45603U 20028B   26162.69222432  .00002433  00000+0  14731-3 0  9997
2 45603  97.5071 168.7800 0009478 295.4879  64.5370 15.11516368334003
HAIYANG-1D              
1 45721U 20036A   26162.74059763 -.00000031  00000+0  42990-5 0  9991
2 45721  98.4550 104.5381 0003119 140.8190 219.3221 14.34171204314196
M2 PATHFINDER           
1 45727U 20037E   26162.46073949  .00001931  00000+0  14173-3 0  9998
2 45727  97.8158 353.6285 0011967 164.5822 195.5770 15.04652768324635
GAOFEN DUOMO (GFDM)     
1 45856U 20042A   26162.71954483  .00000606  00000+0  93211-4 0  9995
2 45856  97.7750 222.8046 0012478  90.2323 270.0317 14.76872326320203
ZIYUAN 3-03 (ZY 3-03)   
1 45939U 20051A   26162.72539149  .00006050  00000+0  27186-3 0  9992
2 45939  97.2838 230.6280 0003803 344.0802  16.0314 15.21492053326519
NEMO-HD                 
1 46277U 20061F   26162.68768598  .00009797  00000+0  21329-3 0  9990
2 46277  97.1928 224.6961 0002462  87.3051 272.8480 15.44483980321139
NAPA-1                  
1 46320U 20061BA  26162.73692372  .00066984  00000+0  62138-3 0  9995
2 46320  97.2472 236.7399 0001222 164.5975 195.5324 15.67262660320882
JILIN-1 GAOFEN 3E       
1 46457U 20065D   26162.65318171  .00056281  00000+0  61740-3 0  9990
2 46457  97.2257 215.1365 0012543 174.3889 185.7513 15.62968297318892
JILIN-1 GAOFEN 3F       
1 46458U 20065E   26162.66866303  .00049903  00000+0  60568-3 0  9997
2 46458  97.2214 212.5136 0014139 163.5931 196.5787 15.60340818318843
JILIN-1 GAOFEN 3G       
1 46459U 20065F   26162.66905480  .00085734  00000+0  70133-3 0  9999
2 46459  97.2282 219.2277 0009542  82.8660 277.3688 15.70223625319074
JILIN-1 GAOFEN 3H       
1 46460U 20065G   26162.69272362  .00072983  00000+0  68372-3 0  9994
2 46460  97.2229 215.6126 0004394  20.9354 339.2086 15.66986645319021
HAIYANG-2C              
1 46469U 20066A   26162.74368014  .00000020  00000+0  91652-4 0  9991
2 46469  65.9970 228.8369 0009135 238.1870 121.8309 13.83375012288748
HJ-2A                   
1 46478U 20067A   26162.67596793  .00000759  00000+0  11604-3 0  9998
2 46478  97.8825 241.1791 0002452 296.9818  63.1141 14.76510445307442
HJ-2B                   
1 46479U 20067B   26162.71301084  .00000741  00000+0  11341-3 0  9990
2 46479  97.8888 242.2319 0001195  96.2678 263.8668 14.76551591307459
GONETS-M 17             
1 46486U 20068A   26162.73557154  .00000029  00000+0  13714-3 0  9997
2 46486  82.4994 350.8953 0023272  48.8579 311.4504 12.42872851258481
GONETS-M 18             
1 46487U 20068B   26162.69922890  .00000026  00000+0  11656-3 0  9996
2 46487  82.4948 350.0379 0020529  45.6771 314.5987 12.42872905258463
GONETS-M 19             
1 46488U 20068C   26162.75522097  .00000011  00000+0  70488-5 0  9993
2 46488  82.4973 350.4524 0014398  60.6203 299.6313 12.42891764258574
DEKART                  
1 46493U 20068H   26162.67405174  .00010855  00000+0  29991-3 0  9994
2 46493  97.8741 171.5493 0007235 311.0425  49.0192 15.37225801314925
NORBI                   
1 46494U 20068J   26162.72838182  .00021070  00000+0  40133-3 0  9992
2 46494  97.8626 178.2128 0004459 272.5832  87.4907 15.48223582315360
SALSAT                  
1 46495U 20068K   26162.58556220  .00006923  00000+0  24314-3 0  9990
2 46495  97.8849 165.3093 0008526 331.4069  28.6701 15.29719030314503
ICEYE-X6                
1 46497U 20068M   26162.73768398  .00003282  00000+0  23914-3 0  9990
2 46497  98.0960 156.1484 0008477 105.8750 254.3410 15.04488745312411
